CCSDS_OMM_VERS = 2.0
CREATION_DATE  = 
ORIGINATOR     = 

OBJECT_NAME    = ALOS (DAICHI)
OBJECT_ID      = 2006-002A
CENTER_NAME    = EARTH
REF_FRAME      = TEME
TIME_SYSTEM    = UTC
MEAN_ELEMENT_THEORY = SGP/SGP4

EPOCH          = 2025-12-14T20:59:04.611552
MEAN_MOTION    = 14.69495224
ECCENTRICITY   = .00012576
INCLINATION    = 98.1091
RA_OF_ASC_NODE = 300.3468
ARG_OF_PERICENTER = 115.2340
MEAN_ANOMALY   = 244.8996

EPHEMERIS_TYPE = 0
CLASSIFICATION_TYPE = U
NORAD_CAT_ID   = 28931
ELEMENT_SET_NO = 999
REV_AT_EPOCH   = 6102
BSTAR          = .23440723E-3
MEAN_MOTION_DOT = .134E-4
MEAN_MOTION_DDOT = 0

CCSDS_OMM_VERS = 2.0
CREATION_DATE  = 
ORIGINATOR     = 

OBJECT_NAME    = H-2A R/B
OBJECT_ID      = 2006-002B
CENTER_NAME    = EARTH
REF_FRAME      = TEME
TIME_SYSTEM    = UTC
MEAN_ELEMENT_THEORY = SGP/SGP4

EPOCH          = 2025-12-14T21:35:14.534592
MEAN_MOTION    = 15.14620852
ECCENTRICITY   = .00545953
INCLINATION    = 98.2306
RA_OF_ASC_NODE = 123.8239
ARG_OF_PERICENTER = 168.9114
MEAN_ANOMALY   = 191.3333

EPHEMERIS_TYPE = 0
CLASSIFICATION_TYPE = U
NORAD_CAT_ID   = 28932
ELEMENT_SET_NO = 999
REV_AT_EPOCH   = 8159
BSTAR          = .37402134E-3
MEAN_MOTION_DOT = .7092E-4
MEAN_MOTION_DDOT = 0

CCSDS_OMM_VERS = 2.0
CREATION_DATE  = 
ORIGINATOR     = 

OBJECT_NAME    = RESURS-DK 1
OBJECT_ID      = 2006-021A
CENTER_NAME    = EARTH
REF_FRAME      = TEME
TIME_SYSTEM    = UTC
MEAN_ELEMENT_THEORY = SGP/SGP4

EPOCH          = 2025-12-14T17:58:07.820832
MEAN_MOTION    = 15.12174507
ECCENTRICITY   = .00070406
INCLINATION    = 69.9334
RA_OF_ASC_NODE = 96.6465
ARG_OF_PERICENTER = 257.4987
MEAN_ANOMALY   = 102.5391

EPHEMERIS_TYPE = 0
CLASSIFICATION_TYPE = U
NORAD_CAT_ID   = 29228
ELEMENT_SET_NO = 999
REV_AT_EPOCH   = 7468
BSTAR          = .16722153E-3
MEAN_MOTION_DOT = .2786E-4
MEAN_MOTION_DDOT = 0

CCSDS_OMM_VERS = 2.0
CREATION_DATE  = 
ORIGINATOR     = 

OBJECT_NAME    = CZ-4B R/B
OBJECT_ID      = 2006-046C
CENTER_NAME    = EARTH
REF_FRAME      = TEME
TIME_SYSTEM    = UTC
MEAN_ELEMENT_THEORY = SGP/SGP4

EPOCH          = 2025-12-14T16:24:06.760512
MEAN_MOTION    = 15.15895432
ECCENTRICITY   = .00334501
INCLINATION    = 97.5737
RA_OF_ASC_NODE = 28.8165
ARG_OF_PERICENTER = 199.6631
MEAN_ANOMALY   = 160.3314

EPHEMERIS_TYPE = 0
CLASSIFICATION_TYPE = U
NORAD_CAT_ID   = 29507
ELEMENT_SET_NO = 999
REV_AT_EPOCH   = 4716
BSTAR          = .2357587E-3
MEAN_MOTION_DOT = .4508E-4
MEAN_MOTION_DDOT = 0

CCSDS_OMM_VERS = 2.0
CREATION_DATE  = 
ORIGINATOR     = 

OBJECT_NAME    = CZ-2C R/B
OBJECT_ID      = 2007-010B
CENTER_NAME    = EARTH
REF_FRAME      = TEME
TIME_SYSTEM    = UTC
MEAN_ELEMENT_THEORY = SGP/SGP4

EPOCH          = 2025-12-14T21:39:56.654784
MEAN_MOTION    = 14.20210814
ECCENTRICITY   = .00591048
INCLINATION    = 98.3975
RA_OF_ASC_NODE = 101.4447
ARG_OF_PERICENTER = 179.6968
MEAN_ANOMALY   = 180.4255

EPHEMERIS_TYPE = 0
CLASSIFICATION_TYPE = U
NORAD_CAT_ID   = 31114
ELEMENT_SET_NO = 999
REV_AT_EPOCH   = 96768
BSTAR          = .89729266E-4
MEAN_MOTION_DOT = .154E-5
MEAN_MOTION_DDOT = 0

CCSDS_OMM_VERS = 2.0
CREATION_DATE  = 
ORIGINATOR     = 

OBJECT_NAME    = COSMO-SKYMED 1
OBJECT_ID      = 2007-023A
CENTER_NAME    = EARTH
REF_FRAME      = TEME
TIME_SYSTEM    = UTC
MEAN_ELEMENT_THEORY = SGP/SGP4

EPOCH          = 2025-12-14T22:17:34.012032
MEAN_MOTION    = 14.95782605
ECCENTRICITY   = .00014077
INCLINATION    = 97.8833
RA_OF_ASC_NODE = 174.3421
ARG_OF_PERICENTER = 89.9184
MEAN_ANOMALY   = 270.2198

EPHEMERIS_TYPE = 0
CLASSIFICATION_TYPE = U
NORAD_CAT_ID   = 31598
ELEMENT_SET_NO = 999
REV_AT_EPOCH   = 223
BSTAR          = .30711903E-3
MEAN_MOTION_DOT = .3367E-4
MEAN_MOTION_DDOT = 0

CCSDS_OMM_VERS = 2.0
CREATION_DATE  = 
ORIGINATOR     = 

OBJECT_NAME    = COSMOS 2428
OBJECT_ID      = 2007-029A
CENTER_NAME    = EARTH
REF_FRAME      = TEME
TIME_SYSTEM    = UTC
MEAN_ELEMENT_THEORY = SGP/SGP4

EPOCH          = 2025-12-14T18:59:46.168512
MEAN_MOTION    = 14.12890362
ECCENTRICITY   = .0003778
INCLINATION    = 70.9367
RA_OF_ASC_NODE = 21.5721
ARG_OF_PERICENTER = 20.7223
MEAN_ANOMALY   = 339.4050

EPHEMERIS_TYPE = 0
CLASSIFICATION_TYPE = U
NORAD_CAT_ID   = 31792
ELEMENT_SET_NO = 999
REV_AT_EPOCH   = 95210
BSTAR          = .88168749E-4
MEAN_MOTION_DOT = .116E-5
MEAN_MOTION_DDOT = 0

CCSDS_OMM_VERS = 2.0
CREATION_DATE  = 
ORIGINATOR     = 

OBJECT_NAME    = SL-16 R/B
OBJECT_ID      = 2007-029B
CENTER_NAME    = EARTH
REF_FRAME      = TEME
TIME_SYSTEM    = UTC
MEAN_ELEMENT_THEORY = SGP/SGP4

EPOCH          = 2025-12-14T17:51:55.513728
MEAN_MOTION    = 14.14814631
ECCENTRICITY   = .00020977
INCLINATION    = 70.9755
RA_OF_ASC_NODE = 350.9436
ARG_OF_PERICENTER = 261.9718
MEAN_ANOMALY   = 271.0572

EPHEMERIS_TYPE = 0
CLASSIFICATION_TYPE = U
NORAD_CAT_ID   = 31793
ELEMENT_SET_NO = 999
REV_AT_EPOCH   = 95335
BSTAR          = .24247735E-4
MEAN_MOTION_DOT = -.1E-7
MEAN_MOTION_DDOT = 0

CCSDS_OMM_VERS = 2.0
CREATION_DATE  = 
ORIGINATOR     = 

OBJECT_NAME    = KORONAS-FOTON
OBJECT_ID      = 2009-003A
CENTER_NAME    = EARTH
REF_FRAME      = TEME
TIME_SYSTEM    = UTC
MEAN_ELEMENT_THEORY = SGP/SGP4

EPOCH          = 2025-12-14T18:24:40.470912
MEAN_MOTION    = 15.41247905
ECCENTRICITY   = .00133588
INCLINATION    = 82.4312
RA_OF_ASC_NODE = 4.0054
ARG_OF_PERICENTER = 102.0678
MEAN_ANOMALY   = 258.2066

EPHEMERIS_TYPE = 0
CLASSIFICATION_TYPE = U
NORAD_CAT_ID   = 33504
ELEMENT_SET_NO = 999
REV_AT_EPOCH   = 93265
BSTAR          = .270397E-3
MEAN_MOTION_DOT = .11313E-3
MEAN_MOTION_DDOT = 0

CCSDS_OMM_VERS = 2.0
CREATION_DATE  = 
ORIGINATOR     = 

OBJECT_NAME    = CZ-2C R/B
OBJECT_ID      = 2011-030B
CENTER_NAME    = EARTH
REF_FRAME      = TEME
TIME_SYSTEM    = UTC
MEAN_ELEMENT_THEORY = SGP/SGP4

EPOCH          = 2025-12-14T21:23:23.968896
MEAN_MOTION    = 14.80910206
ECCENTRICITY   = .00512927
INCLINATION    = 97.8411
RA_OF_ASC_NODE = 302.9503
ARG_OF_PERICENTER = 266.4120
MEAN_ANOMALY   = 155.9001

EPHEMERIS_TYPE = 0
CLASSIFICATION_TYPE = U
NORAD_CAT_ID   = 37731
ELEMENT_SET_NO = 999
REV_AT_EPOCH   = 77754
BSTAR          = .18200547E-3
MEAN_MOTION_DOT = .1383E-4
MEAN_MOTION_DDOT = 0

CCSDS_OMM_VERS = 2.0
CREATION_DATE  = 
ORIGINATOR     = 

OBJECT_NAME    = H-2A R/B
OBJECT_ID      = 2012-025E
CENTER_NAME    = EARTH
REF_FRAME      = TEME
TIME_SYSTEM    = UTC
MEAN_ELEMENT_THEORY = SGP/SGP4

EPOCH          = 2025-12-14T21:59:17.414592
MEAN_MOTION    = 14.94469201
ECCENTRICITY   = .00437673
INCLINATION    = 98.4603
RA_OF_ASC_NODE = 304.3143
ARG_OF_PERICENTER = 228.9299
MEAN_ANOMALY   = 130.8135

EPHEMERIS_TYPE = 0
CLASSIFICATION_TYPE = U
NORAD_CAT_ID   = 38341
ELEMENT_SET_NO = 999
REV_AT_EPOCH   = 73555
BSTAR          = .20343248E-3
MEAN_MOTION_DOT = .2166E-4
MEAN_MOTION_DDOT = 0

CCSDS_OMM_VERS = 2.0
CREATION_DATE  = 
ORIGINATOR     = 

OBJECT_NAME    = SHIJIAN-16 (SJ-16)
OBJECT_ID      = 2013-057A
CENTER_NAME    = EARTH
REF_FRAME      = TEME
TIME_SYSTEM    = UTC
MEAN_ELEMENT_THEORY = SGP/SGP4

EPOCH          = 2025-12-14T22:46:52.543200
MEAN_MOTION    = 14.91993966
ECCENTRICITY   = .00176905
INCLINATION    = 74.9733
RA_OF_ASC_NODE = 345.4748
ARG_OF_PERICENTER = 314.6814
MEAN_ANOMALY   = 45.2931

EPHEMERIS_TYPE = 0
CLASSIFICATION_TYPE = U
NORAD_CAT_ID   = 39358
ELEMENT_SET_NO = 999
REV_AT_EPOCH   = 65886
BSTAR          = .21655875E-3
MEAN_MOTION_DOT = .2172E-4
MEAN_MOTION_DDOT = 0

