ALOS (DAICHI)           
1 28931U 06002A   25348.87435893  .00001340  00000+0  23441-3 0  9994
2 28931  98.1091 300.3468 0001257 115.2340 244.8996 14.69495224 61025
H-2A R/B                
1 28932U 06002B   25348.89947378  .00007092  00000+0  37402-3 0  9995
2 28932  98.2306 123.8239 0054595 168.9114 191.3333 15.14620852 81590
RESURS-DK 1             
1 29228U 06021A   25348.74870163  .00002786  00000+0  16722-3 0  9993
2 29228  69.9334  96.6465 0007040 257.4987 102.5391 15.12174507 74687
CZ-4B R/B               
1 29507U 06046C   25348.68341158  .00004508  00000+0  23576-3 0  9999
2 29507  97.5737  28.8165 0033450 199.6631 160.3314 15.15895432 47162
CZ-2C R/B               
1 31114U 07010B   25348.90273906  .00000154  00000+0  89729-4 0  9994
2 31114  98.3975 101.4447 0059104 179.6968 180.4255 14.20210814967683
COSMO-SKYMED 1          
1 31598U 07023A   25348.92886588  .00003367  00000+0  30712-3 0  9998
2 31598  97.8833 174.3421 0001407  89.9184 270.2198 14.95782605  2232
COSMOS 2428             
1 31792U 07029A   25348.79150658  .00000116  00000+0  88169-4 0  9996
2 31792  70.9367  21.5721 0003778  20.7223 339.4050 14.12890362952102
SL-16 R/B               
1 31793U 07029B   25348.74439252 -.00000001  00000+0  24248-4 0  9994
2 31793  70.9755 350.9436 0002097 261.9718 271.0572 14.14814631953352
KORONAS-FOTON           
1 33504U 09003A   25348.76713508  .00011313  00000+0  27040-3 0  9990
2 33504  82.4312   4.0054 0013358 102.0678 258.2066 15.41247905932656
CZ-2C R/B               
1 37731U 11030B   25348.89124964  .00001383  00000+0  18201-3 0  9990
2 37731  97.8411 302.9503 0051292 266.4120 155.9001 14.80910206777547
H-2A R/B                
1 38341U 12025E   25348.91617378  .00002166  00000+0  20343-3 0  9992
2 38341  98.4603 304.3143 0043767 228.9299 130.8135 14.94469201735553
SHIJIAN-16 (SJ-16)      
1 39358U 13057A   25348.94921925  .00002172  00000+0  21656-3 0  9991
2 39358  74.9733 345.4748 0017690 314.6814  45.2931 14.91993966658862
